ONEWEB-0018             
1 45434U 20020L   26198.88906317 -.00000244  00000+0 -72501-3 0  9991
2 45434  87.8888  14.9526 0001687 103.1447 256.9869 13.11415126306658
ONEWEB-0083             
1 45435U 20020M   26198.87917738  .00000186  00000+0  48931-3 0  9993
2 45435  87.8893  14.9497 0001894  91.9847 268.1498 13.11415274306691
ONEWEB-0095             
1 45436U 20020N   26198.87070456  .00000438  00000+0  11991-2 0  9996
2 45436  87.8893  14.9603 0002258  76.2109 283.9270 13.11415059306697
ONEWEB-0092             
1 45437U 20020P   26198.90122163 -.00000528  00000+0 -15252-2 0  9990
2 45437  87.8892  14.9451 0001707  96.9397 263.1925 13.11414185306814
ONEWEB-0085             
1 45438U 20020Q   26198.95519824  .00000160  00000+0  41621-3 0  9990
2 45438  87.8888  14.9396 0001869  90.3085 269.8257 13.11414953306701
ONEWEB-0096             
1 45439U 20020R   26198.88073248  .00000063  00000+0  14289-3 0  9990
2 45439  87.8892  14.9521 0001918  88.5356 271.5992 13.11414439306684
ONEWEB-0037             
1 45440U 20020S   26198.90699342 -.00000470  00000+0 -13614-2 0  9998
2 45440  87.8904  14.9202 0001966  86.8556 273.2797 13.11415887306727
ONEWEB-0042             
1 45441U 20020T   26198.87043138  .00000429  00000+0  11753-2 0  9995
2 45441  87.8892  14.9508 0001760  91.1866 268.9463 13.11415823306684
ONEWEB-0098             
1 45442U 20020U   26198.94262445  .00000550  00000+0  15168-2 0  9997
2 45442  87.8890  14.9451 0001919  93.1107 267.0241 13.11415010306677
ONEWEB-0055             
1 45443U 20020V   26198.92129111  .00000000  00000+0 -37142-4 0  9997
2 45443  87.8894  14.9484 0001922  91.9927 268.1421 13.11418621306648
ONEWEB-0093             
1 45444U 20020W   26198.90931487 -.00000526  00000+0 -15327-2 0  9996
2 45444  87.8895  14.9480 0001501  90.7397 269.3903 13.10894330306706
ONEWEB-0029             
1 45445U 20020X   26198.92835879  .00000263  00000+0  70656-3 0  9990
2 45445  87.8885  14.9470 0001596  93.9147 266.2163 13.11417352306684
ONEWEB-0068             
1 45446U 20020Y   26198.90093741 -.00000311  00000+0 -91388-3 0  9994
2 45446  87.8894  14.9494 0001675  93.3053 266.8266 13.11417950306627
ONEWEB-0046             
1 45447U 20020Z   26198.89258823 -.00000382  00000+0 -11149-2 0  9991
2 45447  87.8884  14.9548 0001604  84.9584 275.1727 13.11415998306630
ONEWEB-0063             
1 45448U 20020AA  26198.92156517 -.00000013  00000+0 -73545-4 0  9994
2 45448  87.8896  14.9507 0001887  81.9772 278.1570 13.11418266306728
ONEWEB-0019             
1 45449U 20020AB  26198.88398878 -.00000015  00000+0 -77251-4 0  9998
2 45449  87.8888  14.9425 0001991  96.0953 264.0402 13.11414504306564
