{"fetched_at":"2026-07-18T06:27:45.816Z","source":"https://celestrak.org/NORAD/elements/gp.php?GROUP=oneweb&FORMAT=JSON","constellation":"oneweb","records":[{"OBJECT_NAME":"ONEWEB-0018","OBJECT_ID":"2020-020L","EPOCH":"2026-07-17T21:20:15.057888","CLASSIFICATION_TYPE":"U","MEAN_MOTION":13.11415126,"ECCENTRICITY":0.0001687,"INCLINATION":87.8888,"RA_OF_ASC_NODE":14.9526,"ARG_OF_PERICENTER":103.1447,"MEAN_ANOMALY":256.9869,"EPHEMERIS_TYPE":0,"NORAD_CAT_ID":45434,"ELEMENT_SET_NO":999,"REV_AT_EPOCH":30665,"BSTAR":-0.00072500804,"MEAN_MOTION_DOT":-0.00000244,"MEAN_MOTION_DDOT":0},{"OBJECT_NAME":"ONEWEB-0083","OBJECT_ID":"2020-020M","EPOCH":"2026-07-17T21:06:00.925632","CLASSIFICATION_TYPE":"U","MEAN_MOTION":13.11415274,"ECCENTRICITY":0.0001894,"INCLINATION":87.8893,"RA_OF_ASC_NODE":14.9497,"ARG_OF_PERICENTER":91.9847,"MEAN_ANOMALY":268.1498,"EPHEMERIS_TYPE":0,"NORAD_CAT_ID":45435,"ELEMENT_SET_NO":999,"REV_AT_EPOCH":30669,"BSTAR":0.00048930849,"MEAN_MOTION_DOT":0.00000186,"MEAN_MOTION_DDOT":0},{"OBJECT_NAME":"ONEWEB-0095","OBJECT_ID":"2020-020N","EPOCH":"2026-07-17T20:53:48.873984","CLASSIFICATION_TYPE":"U","MEAN_MOTION":13.11415059,"ECCENTRICITY":0.00022588,"INCLINATION":87.8893,"RA_OF_ASC_NODE":14.9603,"ARG_OF_PERICENTER":76.2109,"MEAN_ANOMALY":283.927,"EPHEMERIS_TYPE":0,"NORAD_CAT_ID":45436,"ELEMENT_SET_NO":999,"REV_AT_EPOCH":30669,"BSTAR":0.0011991401,"MEAN_MOTION_DOT":0.00000438,"MEAN_MOTION_DDOT":0},{"OBJECT_NAME":"ONEWEB-0092","OBJECT_ID":"2020-020P","EPOCH":"2026-07-17T21:37:45.548832","CLASSIFICATION_TYPE":"U","MEAN_MOTION":13.11414185,"ECCENTRICITY":0.00017072,"INCLINATION":87.8892,"RA_OF_ASC_NODE":14.9451,"ARG_OF_PERICENTER":96.9397,"MEAN_ANOMALY":263.1925,"EPHEMERIS_TYPE":0,"NORAD_CAT_ID":45437,"ELEMENT_SET_NO":999,"REV_AT_EPOCH":30681,"BSTAR":-0.0015251687,"MEAN_MOTION_DOT":-0.00000528,"MEAN_MOTION_DDOT":0},{"OBJECT_NAME":"ONEWEB-0085","OBJECT_ID":"2020-020Q","EPOCH":"2026-07-17T22:55:29.127936","CLASSIFICATION_TYPE":"U","MEAN_MOTION":13.11414953,"ECCENTRICITY":0.0001869,"INCLINATION":87.8888,"RA_OF_ASC_NODE":14.9396,"ARG_OF_PERICENTER":90.3085,"MEAN_ANOMALY":269.8257,"EPHEMERIS_TYPE":0,"NORAD_CAT_ID":45438,"ELEMENT_SET_NO":999,"REV_AT_EPOCH":30670,"BSTAR":0.00041621455,"MEAN_MOTION_DOT":0.0000016,"MEAN_MOTION_DDOT":0},{"OBJECT_NAME":"ONEWEB-0096","OBJECT_ID":"2020-020R","EPOCH":"2026-07-17T21:08:15.286272","CLASSIFICATION_TYPE":"U","MEAN_MOTION":13.11414439,"ECCENTRICITY":0.00019189,"INCLINATION":87.8892,"RA_OF_ASC_NODE":14.9521,"ARG_OF_PERICENTER":88.5356,"MEAN_ANOMALY":271.5992,"EPHEMERIS_TYPE":0,"NORAD_CAT_ID":45439,"ELEMENT_SET_NO":999,"REV_AT_EPOCH":30668,"BSTAR":0.00014288897,"MEAN_MOTION_DOT":6.3e-7,"MEAN_MOTION_DDOT":0},{"OBJECT_NAME":"ONEWEB-0037","OBJECT_ID":"2020-020S","EPOCH":"2026-07-17T21:46:04.231488","CLASSIFICATION_TYPE":"U","MEAN_MOTION":13.11415887,"ECCENTRICITY":0.00019664,"INCLINATION":87.8904,"RA_OF_ASC_NODE":14.9202,"ARG_OF_PERICENTER":86.8556,"MEAN_ANOMALY":273.2797,"EPHEMERIS_TYPE":0,"NORAD_CAT_ID":45440,"ELEMENT_SET_NO":999,"REV_AT_EPOCH":30672,"BSTAR":-0.0013614428,"MEAN_MOTION_DOT":-0.0000047,"MEAN_MOTION_DDOT":0},{"OBJECT_NAME":"ONEWEB-0042","OBJECT_ID":"2020-020T","EPOCH":"2026-07-17T20:53:25.271232","CLASSIFICATION_TYPE":"U","MEAN_MOTION":13.11415823,"ECCENTRICITY":0.00017602,"INCLINATION":87.8892,"RA_OF_ASC_NODE":14.9508,"ARG_OF_PERICENTER":91.1866,"MEAN_ANOMALY":268.9463,"EPHEMERIS_TYPE":0,"NORAD_CAT_ID":45441,"ELEMENT_SET_NO":999,"REV_AT_EPOCH":30668,"BSTAR":0.0011753397,"MEAN_MOTION_DOT":0.00000429,"MEAN_MOTION_DDOT":0},{"OBJECT_NAME":"ONEWEB-0098","OBJECT_ID":"2020-020U","EPOCH":"2026-07-17T22:37:22.752480","CLASSIFICATION_TYPE":"U","MEAN_MOTION":13.1141501,"ECCENTRICITY":0.00019196,"INCLINATION":87.889,"RA_OF_ASC_NODE":14.9451,"ARG_OF_PERICENTER":93.1107,"MEAN_ANOMALY":267.0241,"EPHEMERIS_TYPE":0,"NORAD_CAT_ID":45442,"ELEMENT_SET_NO":999,"REV_AT_EPOCH":30667,"BSTAR":0.0015167738,"MEAN_MOTION_DOT":0.0000055,"MEAN_MOTION_DDOT":0},{"OBJECT_NAME":"ONEWEB-0055","OBJECT_ID":"2020-020V","EPOCH":"2026-07-17T22:06:39.551904","CLASSIFICATION_TYPE":"U","MEAN_MOTION":13.11418621,"ECCENTRICITY":0.00019226,"INCLINATION":87.8894,"RA_OF_ASC_NODE":14.9484,"ARG_OF_PERICENTER":91.9927,"MEAN_ANOMALY":268.1421,"EPHEMERIS_TYPE":0,"NORAD_CAT_ID":45443,"ELEMENT_SET_NO":999,"REV_AT_EPOCH":30664,"BSTAR":-0.000037142268,"MEAN_MOTION_DOT":0,"MEAN_MOTION_DDOT":0},{"OBJECT_NAME":"ONEWEB-0093","OBJECT_ID":"2020-020W","EPOCH":"2026-07-17T21:49:24.804768","CLASSIFICATION_TYPE":"U","MEAN_MOTION":13.1089433,"ECCENTRICITY":0.00015016,"INCLINATION":87.8895,"RA_OF_ASC_NODE":14.948,"ARG_OF_PERICENTER":90.7397,"MEAN_ANOMALY":269.3903,"EPHEMERIS_TYPE":0,"NORAD_CAT_ID":45444,"ELEMENT_SET_NO":999,"REV_AT_EPOCH":30670,"BSTAR":-0.0015327439,"MEAN_MOTION_DOT":-0.00000526,"MEAN_MOTION_DDOT":0},{"OBJECT_NAME":"ONEWEB-0029","OBJECT_ID":"2020-020X","EPOCH":"2026-07-17T22:16:50.199456","CLASSIFICATION_TYPE":"U","MEAN_MOTION":13.11417352,"ECCENTRICITY":0.00015964,"INCLINATION":87.8885,"RA_OF_ASC_NODE":14.947,"ARG_OF_PERICENTER":93.9147,"MEAN_ANOMALY":266.2163,"EPHEMERIS_TYPE":0,"NORAD_CAT_ID":45445,"ELEMENT_SET_NO":999,"REV_AT_EPOCH":30668,"BSTAR":0.00070656176,"MEAN_MOTION_DOT":0.00000263,"MEAN_MOTION_DDOT":0},{"OBJECT_NAME":"ONEWEB-0068","OBJECT_ID":"2020-020Y","EPOCH":"2026-07-17T21:37:20.992224","CLASSIFICATION_TYPE":"U","MEAN_MOTION":13.1141795,"ECCENTRICITY":0.00016757,"INCLINATION":87.8894,"RA_OF_ASC_NODE":14.9494,"ARG_OF_PERICENTER":93.3053,"MEAN_ANOMALY":266.8266,"EPHEMERIS_TYPE":0,"NORAD_CAT_ID":45446,"ELEMENT_SET_NO":999,"REV_AT_EPOCH":30662,"BSTAR":-0.00091387508,"MEAN_MOTION_DOT":-0.00000311,"MEAN_MOTION_DDOT":0},{"OBJECT_NAME":"ONEWEB-0046","OBJECT_ID":"2020-020Z","EPOCH":"2026-07-17T21:25:19.623072","CLASSIFICATION_TYPE":"U","MEAN_MOTION":13.11415998,"ECCENTRICITY":0.00016043,"INCLINATION":87.8884,"RA_OF_ASC_NODE":14.9548,"ARG_OF_PERICENTER":84.9584,"MEAN_ANOMALY":275.1727,"EPHEMERIS_TYPE":0,"NORAD_CAT_ID":45447,"ELEMENT_SET_NO":999,"REV_AT_EPOCH":30663,"BSTAR":-0.0011149016,"MEAN_MOTION_DOT":-0.00000382,"MEAN_MOTION_DDOT":0},{"OBJECT_NAME":"ONEWEB-0063","OBJECT_ID":"2020-020AA","EPOCH":"2026-07-17T22:07:03.230688","CLASSIFICATION_TYPE":"U","MEAN_MOTION":13.11418266,"ECCENTRICITY":0.00018877,"INCLINATION":87.8896,"RA_OF_ASC_NODE":14.9507,"ARG_OF_PERICENTER":81.9772,"MEAN_ANOMALY":278.157,"EPHEMERIS_TYPE":0,"NORAD_CAT_ID":45448,"ELEMENT_SET_NO":999,"REV_AT_EPOCH":30672,"BSTAR":-0.000073544976,"MEAN_MOTION_DOT":-1.3e-7,"MEAN_MOTION_DDOT":0},{"OBJECT_NAME":"ONEWEB-0019","OBJECT_ID":"2020-020AB","EPOCH":"2026-07-17T21:12:56.630592","CLASSIFICATION_TYPE":"U","MEAN_MOTION":13.11414504,"ECCENTRICITY":0.00019914,"INCLINATION":87.8888,"RA_OF_ASC_NODE":14.9425,"ARG_OF_PERICENTER":96.0953,"MEAN_ANOMALY":264.0402,"EPHEMERIS_TYPE":0,"NORAD_CAT_ID":45449,"ELEMENT_SET_NO":999,"REV_AT_EPOCH":30656,"BSTAR":-0.000077250535,"MEAN_MOTION_DOT":-1.5e-7,"MEAN_MOTION_DDOT":0}]}
